

*******************************************************************************
Ephemeris / WWW_USER Fri Jul 18 11:34:17 2025 Pasadena, USA      / Horizons    
*******************************************************************************
Target body name: (2024 ON)                       {source: JPL#101}
Center body name: Earth (399)                     {source: DE441}
Center-site name: Cerro Tololo Observatory, La Serena
*******************************************************************************
Start time      : A.D. 2024-Aug-31 00:00:00.0000 UT      
Stop  time      : A.D. 2024-Sep-05 00:00:00.0000 UT      
Step-size       : 0 steps
*******************************************************************************
Target pole/equ : undefined
Target radii    : undefined                                                    
Center geodetic : 289.1941, -30.1691165, 2.38888  {E-lon(deg),Lat(deg),Alt(km)}
Center cylindric: 289.1941,5520.92438,-3187.79599 {E-lon(deg),Dxy(km),Dz(km)}
Center pole/equ : ITRF93                          {East-longitude positive}
Center radii    : 6378.137, 6378.137, 6356.752 km {Equator_a, b, pole_c}       
Target primary  : Sun
Vis. interferer : MOON (R_eq= 1737.400) km        {source: DE441}
Rel. light bend : Sun                             {source: DE441}
Rel. lght bnd GM: 1.3271E+11 km^3/s^2                                          
Small-body perts: Yes                             {source: SB441-N16}
Atmos refraction: NO (AIRLESS)
RA format       : HMS
Time format     : CAL 
Calendar mode   : Mixed Julian/Gregorian
EOP file        : eop.250717.p251013                                           
EOP coverage    : DATA-BASED 1962-JAN-20 TO 2025-JUL-17. PREDICTS-> 2025-OCT-12
Units conversion: 1 au= 149597870.700 km, c= 299792.458 km/s, 1 day= 86400.0 s 
Table cut-offs 1: Elevation (-90.0deg=NO ),Airmass (>38.000=NO), Daylight (NO )
Table cut-offs 2: Solar elongation (  0.0,180.0=NO ),Local Hour Angle( 0.0=NO )
Table cut-offs 3: RA/DEC angular rate (     0.0=NO )                           
Table format    : Comma Separated Values (spreadsheet)
*******************************************************************************
Initial IAU76/J2000 heliocentric ecliptic osculating elements (au, days, deg.):
  EPOCH=  2460334.5 ! 2024-Jan-25.00 (TDB)         Residual RMS= .18456        
   EC= .575111410281213    QR= 1.007038953908894   TP= 2460573.5501610111      
   OM= 172.3515413598629   W=  185.3568890889452   IN= 7.741616104613852       
  Equivalent ICRF heliocentric cartesian coordinates (au, au/d):
   X=-1.735596821437832E+00  Y=-1.796056492136574E+00  Z=-4.747340650010250E-01
  VX= 1.028212742539447E-02 VY=-1.370950877796925E-03 VZ=-5.786357533330505E-04
Asteroid physical parameters (km, seconds, rotational period in hours):        
   GM= n.a.                RAD= n.a.               ROTPER= n.a.                
   H= 20.48                G= .150                 B-V= n.a.                   
                           ALBEDO= n.a.            STYP= n.a.                  
***************************************************************************************************************
 Date__(UT)__HR:MN:SC.fff, , , R.A._(ICRF), DEC__(ICRF),             delta,     deldot,  RA_3sigma, DEC_3sigma,
***************************************************************************************************************
$$SOE
 2024-Aug-31 00:00:00.000, , , 17 55 21.29, +07 11 06.4,  0.08796209717258, -8.4955312,      0.058,      0.059,
 2024-Sep-01 00:00:00.000, , , 17 55 23.93, +06 56 39.6,  0.08304950430611, -8.5115376,      0.059,      0.059,
 2024-Sep-02 00:00:00.000, , , 17 55 30.83, +06 40 11.1,  0.07812389739350, -8.5270966,      0.060,      0.060,
 2024-Sep-03 00:00:00.000, , , 17 55 42.54, +06 21 18.2,  0.07318569955563, -8.5418800,      0.061,      0.060,
 2024-Sep-04 00:00:00.000, , , 17 55 59.74, +05 59 31.1,  0.06823555309971, -8.5554903,      0.062,      0.061,
 2024-Sep-05 00:00:00.000, ,m, 17 56 23.36, +05 34 10.7,  0.06327437026781, -8.5674318,      0.064,      0.062,
$$EOE
***************************************************************************************************************
Column meaning:
 
TIME

  Times PRIOR to 1962 are UT1, a mean-solar time closely related to the
prior but now-deprecated GMT. Times AFTER 1962 are in UTC, the current
civil or "wall-clock" time-scale. UTC is kept within 0.9 seconds of UT1
using integer leap-seconds for 1972 and later years.

  Conversion from the internal Barycentric Dynamical Time (TDB) of solar
system dynamics to the non-uniform civil UT time-scale requested for output
has not been determined for UTC times after the next July or January 1st.
Therefore, the last known leap-second is used as a constant over future
intervals.

  Time tags refer to the UT time-scale conversion from TDB on Earth
regardless of observer location within the solar system, although clock
rates may differ due to the local gravity field and no analog to "UT"
may be defined for that location.

  Any 'b' symbol in the 1st-column denotes a B.C. date. First-column blank
(" ") denotes an A.D. date.
 
CALENDAR SYSTEM

  Mixed calendar mode was active such that calendar dates after AD 1582-Oct-15
(if any) are in the modern Gregorian system. Dates prior to 1582-Oct-5 (if any)
are in the Julian calendar system, which is automatically extended for dates
prior to its adoption on 45-Jan-1 BC.  The Julian calendar is useful for
matching historical dates. The Gregorian calendar more accurately corresponds
to the Earth's orbital motion and seasons. A "Gregorian-only" calendar mode is
available if such physical events are the primary interest.

  NOTE: "n.a." in output means quantity "not available" at the print-time.
 
SOLAR PRESENCE (OBSERVING SITE)
  Time tag is followed by a blank, then a solar-presence symbol:

       '*'  Daylight (refracted solar upper-limb on or above apparent horizon)
       'C'  Civil twilight/dawn
       'N'  Nautical twilight/dawn
       'A'  Astronomical twilight/dawn
       ' '  Night OR geocentric ephemeris

LUNAR PRESENCE (OBSERVING SITE)
  The solar-presence symbol is immediately followed by a lunar-presence symbol:

       'm'  Refracted upper-limb of Moon on or above apparent horizon
       ' '  Refracted upper-limb of Moon below apparent horizon OR geocentric
            ephemeris
 
STATISTICAL UNCERTAINTIES

  Output includes formal +/- 3 standard-deviation statistical orbit uncertainty
quantities. There is a 99.7% (1-D) or 98.9% (2-D) chance the actual value is
within given bounds.  These statistical calculations assume observational data
errors are random. If there are systematic biases (such as timing, reduction or
star-catalog errors), results can be optimistic. Because the epoch covariance
is mapped using linearized variational partial derivatives, results can also
be optimistic for times far from the solution epoch, particularly for objects
having close planetary encounters.
 
 'R.A._(ICRF), DEC__(ICRF),' =
  Astrometric right ascension and declination of the target center with
respect to the observing site (coordinate origin) in the reference frame of
the planetary ephemeris (ICRF). Compensated for down-leg light-time delay
aberration.

  Units: RA  in hours-minutes-seconds of time,    HH MM SS.ff{ffff}
         DEC in degrees-minutes-seconds of arc,  sDD MN SC.f{ffff}
 
 'delta,     deldot,' =
   Apparent range ("delta", light-time aberrated) and range-rate ("delta-dot")
of the target center relative to the observer. A positive "deldot" means the
target center is moving away from the observer, negative indicates movement
toward the observer.  Units: AU and KM/S
 
 'RA_3sigma, DEC_3sigma,' =
  Uncertainty in Right-Ascension and Declination. Output values are the formal
+/- 3 standard-deviations (sigmas) around nominal position. Units: ARCSECONDS

Computations by ...

    Solar System Dynamics Group, Horizons On-Line Ephemeris System
    4800 Oak Grove Drive, Jet Propulsion Laboratory
    Pasadena, CA  91109   USA

    General site: https://ssd.jpl.nasa.gov/
    Mailing list: https://ssd.jpl.nasa.gov/email_list.html
    System news : https://ssd.jpl.nasa.gov/horizons/news.html
    User Guide  : https://ssd.jpl.nasa.gov/horizons/manual.html
    Connect     : browser        https://ssd.jpl.nasa.gov/horizons/app.html#/x
                  API            https://ssd-api.jpl.nasa.gov/doc/horizons.html
                  command-line   telnet ssd.jpl.nasa.gov 6775
                  e-mail/batch   https://ssd.jpl.nasa.gov/ftp/ssd/horizons_batch.txt
                  scripts        https://ssd.jpl.nasa.gov/ftp/ssd/SCRIPTS
    Author      : Jon.D.Giorgini@jpl.nasa.gov

***************************************************************************************************************
